NORAD_CAT_ID,OBJECT_NAME,OBJECT_TYPE,EPOCH,MEAN_MOTION,ECCENTRICITY,INCLINATION,RA_OF_ASC_NODE,ARG_OF_PERICENTER,MEAN_ANOMALY,BSTAR,MEAN_MOTION_DOT,MEAN_MOTION_DDOT,TLE_LINE0,TLE_LINE1,TLE_LINE2,SEMIMAJOR_AXIS,PERIOD,APOGEE,PERIGEE,DECAYED
52344.0,STARLINK-3851,PAYLOAD,2023-01-21 17:39:37,15.08852716,0.0001969,53.2148,290.047,81.705,278.4165,0.0011214999999999,0.00017612,0.0,0 STARLINK-3851,1 52344U 22045P   23021.73585349  .00017612  00000-0  11215-2 0  9992,2 52344  53.2148 290.0470 0001969  81.7050 278.4165 15.08852716 43239,6917.842,95.437,541.069,538.344,0.0
52344.0,STARLINK-3851,PAYLOAD,2023-01-22 11:08:51,15.08847007,0.0001141,53.2165,286.7729,105.233,254.8788,0.00045316,6.933e-05,0.0,0 STARLINK-3851,1 52344U 22045P   23022.46448817  .00006933  00000-0  45316-3 0  9995,2 52344  53.2165 286.7729 0001141 105.2330 254.8788 15.08847007 43340,6917.859,95.437,540.513,538.935,0.0
52344.0,STARLINK-3851,PAYLOAD,2023-01-22 17:30:24,15.08831289,0.0001121,53.2164,285.5834,109.3835,250.7279,2.104e-05,4.7e-07,0.0,0 STARLINK-3851,1 52344U 22045P   23022.72945374  .00000047  00000-0  21040-4 0  9993,2 52344  53.2164 285.5834 0001121 109.3835 250.7279 15.08831289 43385,6917.906999999999,95.438,540.548,538.997,0.0
52344.0,STARLINK-3851,PAYLOAD,2023-01-23 03:02:43,15.08848449,0.0001458,53.2154,283.8004,107.2731,252.842,0.0017295,0.00027351,0.0,0 STARLINK-3851,1 52344U 22045P   23023.12689373  .00027351  00000-0  17295-2 0  9994,2 52344  53.2154 283.8004 0001458 107.2731 252.8420 15.08848449 43443,6917.855,95.437,540.7280000000001,538.711,0.0
52344.0,STARLINK-3851,PAYLOAD,2023-01-24 02:53:30,15.08848838,0.0001468,53.2163,279.3355,120.1741,239.9396,0.00058685,9.066e-05,0.0,0 STARLINK-3851,1 52344U 22045P   23024.12049290  .00009066  00000-0  58685-3 0  9995,2 52344  53.2163 279.3355 0001468 120.1741 239.9396 15.08848838 43594,6917.853,95.437,540.734,538.703,0.0
52344.0,STARLINK-3851,PAYLOAD,2023-01-24 20:22:44,15.08846566,0.0001575999999999,53.2163,276.0634,119.0842,241.0308,0.00022014,3.218e-05,0.0,0 STARLINK-3851,1 52344U 22045P   23024.84913137  .00003218  00000-0  22014-3 0  9994,2 52344  53.2163 276.0634 0001576 119.0842 241.0308 15.08846566 43703,6917.86,95.437,540.816,538.635,0.0
52344.0,STARLINK-3851,PAYLOAD,2023-01-25 09:05:50,15.08840313,0.0001184,53.2164,273.6858,113.5805,246.5311,1.5660999999999998e-05,-3.9e-07,0.0,0 STARLINK-3851,1 52344U 22045P   23025.37905117 -.00000039  00000-0  15661-4 0  9992,2 52344  53.2164 273.6858 0001184 113.5805 246.5311 15.08840313 43784,6917.879,95.438,540.564,538.925,0.0
52344.0,STARLINK-3851,PAYLOAD,2023-01-25 20:13:32,15.08836181,0.0001269,53.2165,271.6048,105.6356,254.4776,-6.4644e-05,-1.316e-05,0.0,0 STARLINK-3851,1 52344U 22045P   23025.84273487 -.00001316  00000-0 -64644-4 0  9997,2 52344  53.2165 271.6048 0001269 105.6356 254.4776 15.08836181 43850,6917.892,95.438,540.635,538.879,0.0
52344.0,STARLINK-3851,PAYLOAD,2023-01-26 02:35:04,15.08842933,0.0001058,53.215,270.4174,104.2675,255.8435,6.9384e-05,8.17e-06,0.0,0 STARLINK-3851,1 52344U 22045P   23026.10769146  .00000817  00000-0  69384-4 0  9998,2 52344  53.2150 270.4174 0001058 104.2675 255.8435 15.08842933 43899,6917.871,95.437,540.4680000000001,539.005,0.0
52344.0,STARLINK-3851,PAYLOAD,2023-01-27 02:25:51,15.08850973,9.56e-05,53.2149,265.9566,95.3289,264.7812,0.00026171,3.881e-05,0.0,0 STARLINK-3851,1 52344U 22045P   23027.10128979  .00003881  00000-0  26171-3 0  9992,2 52344  53.2149 265.9566 0000956  95.3289 264.7812 15.08850973 44047,6917.847,95.437,540.373,539.0509999999999,0.0
52344.0,STARLINK-3851,PAYLOAD,2023-01-27 21:30:29,15.0883865,0.0001118,53.2144,262.3854,91.0134,269.0987,4.29e-06,-2.2e-06,0.0,0 STARLINK-3851,1 52344U 22045P   23027.89617570 -.00000220  00000-0  42900-5 0  9993,2 52344  53.2144 262.3854 0001118  91.0134 269.0987 15.08838650 44168,6917.885,95.438,540.523,538.976,0.0
52344.0,STARLINK-3851,PAYLOAD,2023-01-28 00:41:15,15.08840492,0.0001111,53.2147,261.793,93.4891,266.6229,8.9681e-05,1.14e-05,0.0,0 STARLINK-3851,1 52344U 22045P   23028.02865591  .00001140  00000-0  89681-4 0  9994,2 52344  53.2147 261.7930 0001111  93.4891 266.6229 15.08840492 44189,6917.879,95.438,540.512,538.975,0.0
52344.0,STARLINK-3851,PAYLOAD,2023-01-28 21:21:16,15.08841249,0.0001127,53.2146,257.9283,84.7639,275.3481,7.0141e-05,8.29e-06,0.0,0 STARLINK-3851,1 52344U 22045P   23028.88977848  .00000829  00000-0  70141-4 0  9991,2 52344  53.2146 257.9283 0001127  84.7639 275.3481 15.08841249 44319,6917.877,95.437,540.521,538.962,0.0
52344.0,STARLINK-3851,PAYLOAD,2023-01-29 21:12:03,15.08846264,0.0001189,53.2144,253.4674,85.2724,274.8404,0.00018305,2.627e-05,0.0,0 STARLINK-3851,1 52344U 22045P   23029.88337731  .00002627  00000-0  18305-3 0  9994,2 52344  53.2144 253.4674 0001189  85.2724 274.8404 15.08846264 44468,6917.861,95.437,540.549,538.904,0.0
52344.0,STARLINK-3851,PAYLOAD,2023-01-30 14:41:18,15.0883856,0.0001229,53.2143,250.1966,82.0639,278.0492,0.00011733,1.58e-05,0.0,0 STARLINK-3851,1 52344U 22045P   23030.61202159  .00001580  00000-0  11733-3 0  9997,2 52344  53.2143 250.1966 0001229  82.0639 278.0492 15.08838560 44575,6917.885,95.438,540.6,538.9,0.0
52344.0,STARLINK-3851,PAYLOAD,2023-01-30 21:02:51,15.08842052,0.0001146,53.2143,249.0074,81.7257,278.3865,0.00010561,1.393e-05,0.0,0 STARLINK-3851,1 52344U 22045P   23030.87697952  .00001393  00000-0  10561-3 0  9994,2 52344  53.2143 249.0074 0001146  81.7257 278.3865 15.08842052 44615,6917.874,95.437,540.532,538.946,0.0
52344.0,STARLINK-3851,PAYLOAD,2023-01-31 14:32:05,15.08842401,0.0001157,53.214,245.7361,84.0838,276.0286,8.3731e-05,1.045e-05,0.0,0 STARLINK-3851,1 52344U 22045P   23031.60561883  .00001045  00000-0  83731-4 0  9993,2 52344  53.2140 245.7361 0001157  84.0838 276.0286 15.08842401 44729,6917.873,95.437,540.538,538.938,0.0
52344.0,STARLINK-3851,PAYLOAD,2023-01-31 20:53:37,15.08845504,0.0001162,53.2147,244.5461,88.5583,271.5542,9.4917e-05,1.223e-05,0.0,0 STARLINK-3851,1 52344U 22045P   23031.87057593  .00001223  00000-0  94917-4 0  9996,2 52344  53.2147 244.5461 0001162  88.5583 271.5542 15.08845504 44762,6917.864,95.437,540.532,538.925,0.0
52344.0,STARLINK-3851,PAYLOAD,2023-02-01 00:04:24,15.08844565,0.000115,53.2147,243.9516,88.0232,272.0892,8.362e-05,1.043e-05,0.0,0 STARLINK-3851,1 52344U 22045P   23032.00305613  .00001043  00000-0  83620-4 0  9990,2 52344  53.2147 243.9516 0001150  88.0232 272.0892 15.08844565 44781,6917.866,95.437,540.527,538.936,0.0
52344.0,STARLINK-3851,PAYLOAD,2023-02-01 14:22:52,15.0883564,0.000117,53.2143,241.2752,88.5445,271.5681,4.9452e-05,4.99e-06,0.0,0 STARLINK-3851,1 52344U 22045P   23032.59922269  .00000499  00000-0  49452-4 0  9995,2 52344  53.2143 241.2752 0001170  88.5445 271.5681 15.08835640 44877,6917.894,95.438,540.568,538.949,0.0
52344.0,STARLINK-3851,PAYLOAD,2023-02-02 14:13:39,15.08839465,0.0001047,53.2147,236.8145,91.0602,269.051,4.4477e-05,4.2e-06,0.0,0 STARLINK-3851,1 52344U 22045P   23033.59282122  .00000420  00000-0  44477-4 0  9999,2 52344  53.2147 236.8145 0001047  91.0602 269.0510 15.08839465 45024,6917.882,95.438,540.471,539.023,0.0
52344.0,STARLINK-3851,PAYLOAD,2023-02-02 23:45:58,15.08842677,0.0001036,53.2148,235.0303,89.4062,270.7049,6.4191e-05,7.34e-06,0.0,0 STARLINK-3851,1 52344U 22045P   23033.99025838  .00000734  00000-0  64191-4 0  9995,2 52344  53.2148 235.0303 0001036  89.4062 270.7049 15.08842677 45082,6917.872,95.437,540.454,539.021,0.0
52344.0,STARLINK-3851,PAYLOAD,2023-02-03 14:04:27,15.08835023,0.0001047,53.215,232.354,94.4227,265.6885,3.3669e-05,2.48e-06,0.0,0 STARLINK-3851,1 52344U 22045P   23034.58642559  .00000248  00000-0  33669-4 0  9992,2 52344  53.2150 232.3540 0001047  94.4227 265.6885 15.08835023 45177,6917.896,95.438,540.485,539.036,0.0
52344.0,STARLINK-3851,PAYLOAD,2023-02-04 12:19:50,15.08839841,0.0001046,53.2148,228.1906,93.6751,266.4361,7.3176e-05,8.77e-06,0.0,0 STARLINK-3851,1 52344U 22045P   23035.51378274  .00000877  00000-0  73176-4 0  9991,2 52344  53.2148 228.1906 0001046  93.6751 266.4361 15.08839841 45311,6917.881,95.438,540.469,539.022,0.0
52344.0,STARLINK-3851,PAYLOAD,2023-02-04 21:52:09,15.08844137,0.0001013,53.215,226.4064,93.0591,267.0517,7.4651e-05,9.01e-06,0.0,0 STARLINK-3851,1 52344U 22045P   23035.91121938  .00000901  00000-0  74651-4 0  9995,2 52344  53.2150 226.4064 0001013  93.0591 267.0517 15.08844137 45370,6917.868,95.437,540.434,539.032,0.0
52344.0,STARLINK-3851,PAYLOAD,2023-02-05 12:10:44,15.08752255,0.0001135,53.2162,223.731,104.178,255.9339,-0.00062539,-0.00010203,0.0,0 STARLINK-3851,1 52344U 22045P   23036.50746271 -.00010203  00000-0 -62539-3 0  9993,2 52344  53.2162 223.7310 0001135 104.1780 255.9339 15.08752255 45463,6918.149,95.443,540.799,539.228,0.0
52344.0,STARLINK-3851,PAYLOAD,2023-02-05 18:32:30,15.08601914,0.0001178,53.2148,222.5415,93.9375,266.1752,-0.001826,-0.00029043,0.0,0 STARLINK-3851,1 52344U 22045P   23036.77257054 -.00029043  00000-0 -18260-2 0  9991,2 52344  53.2148 222.5415 0001178  93.9375 266.1752 15.08601914 45505,6918.608,95.453,541.288,539.658,0.0
52344.0,STARLINK-3851,PAYLOAD,2023-02-05 21:43:23,15.08521145,9.5e-05,53.2151,221.9476,81.2265,278.8835,-0.0025002,-0.00039515,0.0,0 STARLINK-3851,1 52344U 22045P   23036.90513733 -.00039515  00000-0 -25002-2 0  9992,2 52344  53.2151 221.9476 0000950  81.2265 278.8835 15.08521145 45525,6918.855,95.458,541.377,540.063,0.0
52344.0,STARLINK-3851,PAYLOAD,2023-02-06 00:54:17,15.08438236,0.0001081,53.2151,221.3536,119.6593,240.4506,-0.0031446,-0.00049446,0.0,0 STARLINK-3851,1 52344U 22045P   23037.03770817 -.00049446  00000-0 -31446-2 0  9998,2 52344  53.2151 221.3536 0001081 119.6593 240.4506 15.08438236 45542,6919.109,95.463,541.722,540.226,0.0
52344.0,STARLINK-3851,PAYLOAD,2023-02-06 18:24:25,15.07974919,0.0001218,53.2149,218.0863,72.1538,287.9586,-0.0063869,-0.00098205,0.0,0 STARLINK-3851,1 52344U 22045P   23037.76696047 -.00098205  00000-0 -63869-2 0  9991,2 52344  53.2149 218.0863 0001218  72.1538 287.9586 15.07974919 45657,6920.526,95.492,543.234,541.548,0.0
